[{"OBJECT_NAME":"TIANQI-21","OBJECT_ID":"2023-135A","EPOCH":"2026-03-09T21:46:55.834752","MEAN_MOTION":14.23085423,"ECCENTRICITY":0.00130966,"INCLINATION":49.9714,"RA_OF_ASC_NODE":210.0306,"ARG_OF_PERICENTER":269.1153,"MEAN_ANOMALY":90.8259,"EPHEMERIS_TYPE":0,"CLASSIFICATION_TYPE":"U","NORAD_CAT_ID":57792,"ELEMENT_SET_NO":999,"REV_AT_EPOCH":13049,"BSTAR":0.00019098246,"MEAN_MOTION_DOT":2.75e-6,"MEAN_MOTION_DDOT":0},{"OBJECT_NAME":"SL-16 R\/B","OBJECT_ID":"1998-043G","EPOCH":"2026-03-09T20:55:34.365792","MEAN_MOTION":14.26049928,"ECCENTRICITY":0.00102097,"INCLINATION":98.8253,"RA_OF_ASC_NODE":22.2366,"ARG_OF_PERICENTER":19.8771,"MEAN_ANOMALY":340.2805,"EPHEMERIS_TYPE":0,"CLASSIFICATION_TYPE":"U","NORAD_CAT_ID":25400,"ELEMENT_SET_NO":999,"REV_AT_EPOCH":43901,"BSTAR":6.5699284e-5,"MEAN_MOTION_DOT":1.12e-6,"MEAN_MOTION_DDOT":0}]
